25112,ORBCOMM FM08,1997,99.83,45.0,-,45.01,Inactive,1,LEO,Eastern Range Airspace,ORBCOMM,Commercial,Communications,Pegasus,1 25112U 97084A   24128.34930981  .00002111  00000+0  67353-3 0  9994,2 25112  45.0137 151.1976 0008148 344.5263  15.5337 14.42500139382704,14.42500139,0.0008148,LEO
25113,ORBCOMM FM10,1997,99.83,45.0,-,45.01,Inactive,1,LEO,Eastern Range Airspace,ORBCOMM,Commercial,Communications,Pegasus,1 25113U 97084B   24128.35602904  .00001999  00000+0  64122-3 0  9991,2 25113  45.0149 153.0183 0006675 316.3141  43.7180 14.42412534557854,14.42412534,0.0006675,LEO
25115,ORBCOMM FM12,1997,99.84,45.0,-,45.01,Inactive,1,LEO,Eastern Range Airspace,ORBCOMM,Commercial,Communications,Pegasus,1 25115U 97084D   24128.33422256  .00001967  00000+0  63368-3 0  9997,2 25115  45.0142 152.8835 0006470 316.2747  43.7590 14.42253109382610,14.42253109,0.000647,LEO
25116,ORBCOMM FM09,1997,99.85,45.0,-,45.01,Inactive,1,LEO,Eastern Range Airspace,ORBCOMM,Commercial,Communications,Pegasus,1 25116U 97084E   24128.34544444  .00001995  00000+0  64254-3 0  9999,2 25116  45.0145 153.5152 0007783 307.1513  52.8626 14.42219326382829,14.42219326,0.0007783,LEO
23545,ORBCOMM FM01,1995,97.31,-1.0,-,69.97,Inactive,0,LEO,Western Range Airspace,ORBCOMM,Unknown,Unknown,Pegasus,1 23545U 95017A   24128.05580921  .00006471  00000+0  86588-3 0  9993,2 23545  69.9689 358.9119 0008327 229.6086 130.4337 14.79875848552214,14.79875848,0.0008327,LEO
23546,ORBCOMM FM02,1995,97.33,-1.0,-,69.97,Inactive,0,LEO,Western Range Airspace,ORBCOMM,Unknown,Unknown,Pegasus,1 23546U 95017B   24128.48955770  .00007250  00000+0  97791-3 0  9993,2 23546  69.9714  17.2659 0010005 222.5213 137.5162 14.79464023551928,14.79464023,0.0010005,LEO
25114,ORBCOMM FM11,1997,99.84,45.0,+,45.01,Active,1,LEO,Eastern Range Airspace,ORBCOMM,Commercial,Communications,Pegasus,1 25114U 97084C   24128.44371735  .00002046  00000+0  65700-3 0  9994,2 25114  45.0134 152.6654 0007427 318.3644  41.6639 14.42296547382837,14.42296547,0.0007427,LEO
